OBJECT_NAME,OBJECT_ID,EPOCH,MEAN_MOTION,ECCENTRICITY,INCLINATION,RA_OF_ASC_NODE,ARG_OF_PERICENTER,MEAN_ANOMALY,EPHEMERIS_TYPE,CLASSIFICATION_TYPE,NORAD_CAT_ID,ELEMENT_SET_NO,REV_AT_EPOCH,BSTAR,MEAN_MOTION_DOT,MEAN_MOTION_DDOT
LEMUR-2-CELIJO-SB-PK,2025-276DW,2026-06-19T16:55:05.560608,15.00003232,.00085934,97.5242,241.4003,126.6428,233.5587,0,U,66781,999,2300,.42853036E-3,.5277E-4,0
LEMUR-2-FINNIAN,2025-276DX,2026-06-19T17:57:00.738144,15.00405471,.00089091,97.5291,241.6582,81.8955,278.3279,0,U,66782,999,2038,.44925011E-3,.5594E-4,0
LEMUR-2-STARLIGHT,2025-276DY,2026-06-20T04:10:16.094496,14.99066550,.00150131,97.5248,241.7106,119.5620,240.7102,0,U,66783,999,3064,.36990223E-3,.4443E-4,0
LEMUR-2-TARTIFLETTE,2025-276DZ,2026-06-20T04:07:59.913408,14.99091455,.00139781,97.5254,241.7165,126.1842,234.0677,0,U,66784,999,3064,.31841196E-3,.3818E-4,0
LEMUR-2-VUKASIN,2025-276EA,2026-06-19T18:18:55.947456,15.00389549,.00060252,97.5297,241.6238,118.4030,241.7802,0,U,66785,999,3053,.35036287E-3,.4346E-4,0
LEMUR-2-HOTSPUR-TOM,2025-276EB,2026-06-19T16:44:43.597248,14.98983750,.00153566,97.5256,241.2390,120.1487,240.1261,0,U,66786,999,3050,.37392559E-3,.4483E-4,0
LEMUR-2-MYRA,2025-276EC,2026-06-20T04:40:48.647136,15.00283418,.00169572,97.5212,241.9775,131.5945,228.6736,0,U,66787,999,3066,.52658155E-3,.6561E-4,0
LEMUR-2 FIKRETDENGIZ,2026-004A,2026-06-20T05:26:46.623264,14.88343365,.00102942,97.8021,169.7379,124.3644,235.8548,0,U,67363,999,2373,.33576031E-3,.3056E-4,0
TWILIGHT-1 OBJECT B,2026-004B,2026-06-19T23:36:25.550784,14.87710349,.0010119,97.8061,169.5125,116.5010,243.7245,0,U,67364,999,2370,.15572212E-3,.1366E-4,0
LEMUR-2-MARIO-SOUSA,2026-004C,2026-06-19T22:35:26.093472,14.88532364,.00098626,97.7990,169.4529,125.7925,234.4210,0,U,67365,999,2370,.41821401E-3,.3838E-4,0
LEMUR-2-SONNENBLUME,2026-004E,2026-06-19T22:33:39.309120,14.88327278,.00093507,97.7982,169.4351,127.3528,232.8541,0,U,67367,999,2370,.27372005E-3,.248E-4,0
LEMUR-2-WOBLER,2026-004F,2026-06-19T22:23:44.238624,14.88531579,.00097806,97.8039,169.5534,118.2058,242.0148,0,U,67368,999,2370,.34161715E-3,.3125E-4,0
LEMUR-2-GRAM-E-SUE,2026-004H,2026-06-19T22:10:23.778912,14.88480894,.00083475,97.7974,169.4345,128.0284,232.1687,0,U,67370,999,2370,.19675931E-3,.1774E-4,0
LEMUR-2-KATIE,2026-004AA,2026-06-20T05:51:23.606208,14.90063234,.00048053,97.8036,170.2190,86.4183,273.7584,0,U,67387,999,2376,.23802208E-3,.2244E-4,0
LEMUR-2-HCS-BAZUS,2026-004AB,2026-06-20T05:49:57.654624,14.90094701,.00043148,97.8026,170.1987,84.1543,276.0166,0,U,67388,999,2376,.39579553E-3,.3771E-4,0
