LEMUR-2-CELIJO-SB-PK    
1 66781U 25276DW  26170.70492547  .00005277  00000+0  42853-3 0  9999
2 66781  97.5242 241.4003 0008593 126.6428 233.5587 15.00003232 23001
LEMUR-2-FINNIAN         
1 66782U 25276DX  26170.74792521  .00005594  00000+0  44925-3 0  9993
2 66782  97.5291 241.6582 0008909  81.8955 278.3279 15.00405471 20382
LEMUR-2-STARLIGHT       
1 66783U 25276DY  26171.17379739  .00004443  00000+0  36990-3 0  9999
2 66783  97.5248 241.7106 0015013 119.5620 240.7102 14.99066550 30646
LEMUR-2-TARTIFLETTE     
1 66784U 25276DZ  26171.17222122  .00003818  00000+0  31841-3 0  9998
2 66784  97.5254 241.7165 0013978 126.1842 234.0677 14.99091455 30642
LEMUR-2-VUKASIN         
1 66785U 25276EA  26170.76314754  .00004346  00000+0  35036-3 0  9993
2 66785  97.5297 241.6238 0006025 118.4030 241.7802 15.00389549 30538
LEMUR-2-HOTSPUR-TOM     
1 66786U 25276EB  26170.69772682  .00004483  00000+0  37393-3 0  9994
2 66786  97.5256 241.2390 0015356 120.1487 240.1261 14.98983750 30501
LEMUR-2-MYRA            
1 66787U 25276EC  26171.19500749  .00006561  00000+0  52658-3 0  9994
2 66787  97.5212 241.9775 0016957 131.5945 228.6736 15.00283418 30664
LEMUR-2 FIKRETDENGIZ    
1 67363U 26004A   26171.22692851  .00003056  00000+0  33576-3 0  9999
2 67363  97.8021 169.7379 0010294 124.3644 235.8548 14.88343365 23731
TWILIGHT-1 OBJECT B     
1 67364U 26004B   26170.98362906  .00001366  00000+0  15572-3 0  9995
2 67364  97.8061 169.5125 0010119 116.5010 243.7245 14.87710349 23707
LEMUR-2-MARIO-SOUSA     
1 67365U 26004C   26170.94127423  .00003838  00000+0  41821-3 0  9997
2 67365  97.7990 169.4529 0009862 125.7925 234.4210 14.88532364 23704
LEMUR-2-SONNENBLUME     
1 67367U 26004E   26170.94003830  .00002480  00000+0  27372-3 0  9991
2 67367  97.7982 169.4351 0009350 127.3528 232.8541 14.88327278 23704
LEMUR-2-WOBLER          
1 67368U 26004F   26170.93315091  .00003125  00000+0  34162-3 0  9998
2 67368  97.8039 169.5534 0009780 118.2058 242.0148 14.88531579 23704
LEMUR-2-GRAM-E-SUE      
1 67370U 26004H   26170.92388633  .00001774  00000+0  19676-3 0  9993
2 67370  97.7974 169.4345 0008347 128.0284 232.1687 14.88480894 23702
LEMUR-2-KATIE           
1 67387U 26004AA  26171.24402322  .00002244  00000+0  23802-3 0  9998
2 67387  97.8036 170.2190 0004805  86.4183 273.7584 14.90063234 23769
LEMUR-2-HCS-BAZUS       
1 67388U 26004AB  26171.24302841  .00003771  00000+0  39580-3 0  9990
2 67388  97.8026 170.1987 0004314  84.1543 276.0166 14.90094701 23767
